NORAD_CAT_ID,OBJECT_NAME,OBJECT_TYPE,EPOCH,MEAN_MOTION,ECCENTRICITY,INCLINATION,RA_OF_ASC_NODE,ARG_OF_PERICENTER,MEAN_ANOMALY,BSTAR,MEAN_MOTION_DOT,MEAN_MOTION_DDOT,TLE_LINE0,TLE_LINE1,TLE_LINE2,SEMIMAJOR_AXIS,PERIOD,APOGEE,PERIGEE,DECAYED
53846.0,STARLINK-4746,PAYLOAD,2023-06-10 03:33:58,15.08844913,0.0001239,53.2163,119.006,89.3164,270.797,6.1278e-05,6.88e-06,0.0,0 STARLINK-4746,1 53846U 22114AE  23161.14859337  .00000688  00000-0  61278-4 0  9999,2 53846  53.2163 119.0060 0001239  89.3164 270.7970 15.08844913 40932,6917.865,95.437,540.587,538.873,0.0
53846.0,STARLINK-4746,PAYLOAD,2023-06-10 06:44:44,15.08846115,0.0001269,53.2162,118.4111,89.1563,270.9574,6.9459e-05,8.18e-06,0.0,0 STARLINK-4746,1 53846U 22114AE  23161.28107199  .00000818  00000-0  69459-4 0  9990,2 53846  53.2162 118.4111 0001269  89.1563 270.9574 15.08846115 41495,6917.862,95.437,540.605,538.849,0.0
53846.0,STARLINK-4746,PAYLOAD,2023-06-11 03:24:45,15.08837712,0.0001233,53.216,114.5456,89.2495,270.8638,5.8605e-05,6.45e-06,0.0,0 STARLINK-4746,1 53846U 22114AE  23162.14219739  .00000645  00000-0  58605-4 0  9999,2 53846  53.2160 114.5456 0001233  89.2495 270.8638 15.08837712 41086,6917.887,95.438,540.605,538.899,0.0
53846.0,STARLINK-4746,PAYLOAD,2023-06-11 06:35:31,15.08841365,0.0001248,53.216,113.9508,89.4457,270.6678,4.4194e-05,4.16e-06,0.0,0 STARLINK-4746,1 53846U 22114AE  23162.27467564  .00000416  00000-0  44194-4 0  9998,2 53846  53.2160 113.9508 0001248  89.4457 270.6678 15.08841365 41646,6917.876,95.437,540.605,538.878,0.0
53846.0,STARLINK-4746,PAYLOAD,2023-06-12 03:15:33,15.08838046,0.0001426,53.2156,110.086,88.5586,271.557,-7.7583e-06,-4.11e-06,0.0,0 STARLINK-4746,1 53846U 22114AE  23163.13580085 -.00000411  00000-0 -77583-5 0  9994,2 53846  53.2156 110.0860 0001426  88.5586 271.5570 15.08838046 41778,6917.886,95.438,540.738,538.765,0.0
53846.0,STARLINK-4746,PAYLOAD,2023-06-13 03:06:20,15.08839179,0.0001299,53.2173,105.6249,89.4449,270.6692,-1.3109e-05,-4.97e-06,0.0,0 STARLINK-4746,1 53846U 22114AE  23164.12940201 -.00000497  00000-0 -13109-4 0  9991,2 53846  53.2173 105.6249 0001299  89.4449 270.6692 15.08839179 41384,6917.883,95.438,540.647,538.849,0.0
53846.0,STARLINK-4746,PAYLOAD,2023-06-13 20:35:34,15.08837302,0.0001199,53.2165,102.355,87.4549,272.658,4.614e-05,4.47e-06,0.0,0 STARLINK-4746,1 53846U 22114AE  23164.85804336  .00000447  00000-0  46140-4 0  9993,2 53846  53.2165 102.3550 0001199  87.4549 272.6580 15.08837302 42039,6917.889,95.438,540.583,538.924,0.0
53846.0,STARLINK-4746,PAYLOAD,2023-06-14 04:32:30,15.0884134,0.0001223,53.2167,100.8683,87.3008,272.8124,7.6378e-05,9.28e-06,0.0,0 STARLINK-4746,1 53846U 22114AE  23165.18924029  .00000928  00000-0  76378-4 0  9992,2 53846  53.2167 100.8683 0001223  87.3008 272.8124 15.08841340 41546,6917.876,95.437,540.587,538.895,0.0
53846.0,STARLINK-4746,PAYLOAD,2023-06-15 02:47:55,15.08833074,0.0001165,53.217,96.7056,91.7736,268.339,-2.2712e-05,-6.49e-06,0.0,0 STARLINK-4746,1 53846U 22114AE  23166.11661157 -.00000649  00000-0 -22712-4 0  9991,2 53846  53.2170  96.7056 0001165  91.7736 268.3390 15.08833074 41684,6917.902,95.438,540.572,538.961,0.0
53846.0,STARLINK-4746,PAYLOAD,2023-06-15 05:58:41,15.08831133,0.0001209,53.2169,96.1102,98.1535,261.9594,4.4316e-05,4.17e-06,0.0,0 STARLINK-4746,1 53846U 22114AE  23166.24909098  .00000417  00000-0  44316-4 0  9999,2 53846  53.2169  96.1102 0001209  98.1535 261.9594 15.08831133 42247,6917.907,95.438,540.609,538.936,0.0
53846.0,STARLINK-4746,PAYLOAD,2023-06-16 01:03:18,15.08845412,0.0001216,53.218,92.5412,100.2758,259.8371,5.7347e-05,6.25e-06,0.0,0 STARLINK-4746,1 53846U 22114AE  23167.04396240  .00000625  00000-0  57347-4 0  9996,2 53846  53.2180  92.5412 0001216 100.2758 259.8371 15.08845412 41821,6917.864,95.437,540.57,538.888,0.0
53846.0,STARLINK-4746,PAYLOAD,2023-06-16 04:14:04,15.08852213,0.0001271,53.2172,91.9462,97.4389,262.6747,0.00012013,1.625e-05,0.0,0 STARLINK-4746,1 53846U 22114AE  23167.17643611  .00001625  00000-0  12013-3 0  9998,2 53846  53.2172  91.9462 0001271  97.4389 262.6747 15.08852213 41846,6917.843,95.437,540.587,538.829,0.0
53846.0,STARLINK-4746,PAYLOAD,2023-06-16 18:32:32,15.08844851,0.0001138,53.2157,89.2711,91.5619,268.5504,7.3924e-05,8.89e-06,0.0,0 STARLINK-4746,1 53846U 22114AE  23167.77260095  .00000889  00000-0  73924-4 0  9995,2 53846  53.2157  89.2711 0001138  91.5619 268.5504 15.08844851 42474,6917.866,95.437,540.518,538.943,0.0
53846.0,STARLINK-4746,PAYLOAD,2023-06-17 00:54:05,15.08845709,0.0001168,53.2158,88.0816,89.5528,270.5598,7.5466e-05,9.14e-06,0.0,0 STARLINK-4746,1 53846U 22114AE  23168.03755949  .00000914  00000-0  75466-4 0  9994,2 53846  53.2158  88.0816 0001168  89.5528 270.5598 15.08845709 41970,6917.863,95.437,540.536,538.92,0.0
53846.0,STARLINK-4746,PAYLOAD,2023-06-17 04:04:50,15.08851475,0.0001135,53.2169,87.4859,91.2376,268.8746,0.00012728,1.739e-05,0.0,0 STARLINK-4746,1 53846U 22114AE  23168.17003378  .00001739  00000-0  12728-3 0  9998,2 53846  53.2169  87.4859 0001135  91.2376 268.8746 15.08851475 41991,6917.845,95.437,540.495,538.925,0.0
53846.0,STARLINK-4746,PAYLOAD,2023-06-17 12:01:47,15.08834913,0.000108,53.2169,86.0006,81.8806,278.2309,-2.1644e-06,-3.22e-06,0.0,0 STARLINK-4746,1 53846U 22114AE  23168.50124786 -.00000322  00000-0 -21644-5 0  9990,2 53846  53.2169  86.0006 0001080  81.8806 278.2309 15.08834913 42586,6917.896,95.438,540.508,539.014,0.0
53846.0,STARLINK-4746,PAYLOAD,2023-06-18 11:52:35,15.08841124,0.0001308,53.2189,81.5375,102.9335,257.1803,-0.00010153,-1.903e-05,0.0,0 STARLINK-4746,1 53846U 22114AE  23169.49484993 -.00001903  00000-0 -10153-3 0  9995,2 53846  53.2189  81.5375 0001308 102.9335 257.1803 15.08841124 42736,6917.877,95.437,540.647,538.837,0.0
53846.0,STARLINK-4746,PAYLOAD,2023-06-19 00:35:39,15.08849426,0.0001163,53.2174,79.1591,98.3869,261.7255,3.2291e-05,2.26e-06,0.0,0 STARLINK-4746,1 53846U 22114AE  23170.02476073  .00000226  00000-0  32291-4 0  9999,2 53846  53.2174  79.1591 0001163  98.3869 261.7255 15.08849426 42276,6917.852,95.437,540.521,538.912,0.0
53846.0,STARLINK-4746,PAYLOAD,2023-06-19 03:46:25,15.08851866,0.0001231,53.2172,78.5643,98.738,261.3752,5.9612e-05,6.61e-06,0.0,0 STARLINK-4746,1 53846U 22114AE  23170.15723814  .00000661  00000-0  59612-4 0  9990,2 53846  53.2172  78.5643 0001231  98.7380 261.3752 15.08851866 42834,6917.844,95.437,540.561,538.858,0.0
53846.0,STARLINK-4746,PAYLOAD,2023-06-20 03:37:13,15.08835423,0.0001191,53.2174,74.1044,91.7013,268.4115,9.9411e-05,1.294e-05,0.0,0 STARLINK-4746,1 53846U 22114AE  23171.15085155  .00001294  00000-0  99411-4 0  9994,2 53846  53.2174  74.1044 0001191  91.7013 268.4115 15.08835423 42443,6917.894,95.438,540.583,538.935,0.0
53846.0,STARLINK-4746,PAYLOAD,2023-06-20 09:58:46,15.08833699,0.0001199,53.2176,72.9146,90.8344,269.2785,7.5761e-05,9.18e-06,0.0,0 STARLINK-4746,1 53846U 22114AE  23171.41581412  .00000918  00000-0  75761-4 0  9994,2 53846  53.2176  72.9146 0001199  90.8344 269.2785 15.08833699 43029,6917.9,95.438,540.594,538.935,0.0
53846.0,STARLINK-4746,PAYLOAD,2023-06-20 21:06:28,15.08842164,0.0001105,53.218,70.834,98.0622,262.0496,3.4193e-05,2.56e-06,0.0,0 STARLINK-4746,1 53846U 22114AE  23171.87949083  .00000256  00000-0  34193-4 0  9995,2 53846  53.2180  70.8340 0001105  98.0622 262.0496 15.08842164 43097,6917.874,95.437,540.503,538.974,0.0
53846.0,STARLINK-4746,PAYLOAD,2023-06-21 00:17:13,15.0885134,0.0001095,53.2173,70.2397,95.7476,264.3641,5.2753e-05,5.52e-06,0.0,0 STARLINK-4746,1 53846U 22114AE  23172.01196342  .00000552  00000-0  52753-4 0  9995,2 53846  53.2173  70.2397 0001095  95.7476 264.3641 15.08851340 42579,6917.846,95.437,540.468,538.953,0.0
53846.0,STARLINK-4746,PAYLOAD,2023-06-21 09:49:32,15.08846118,0.0001122,53.2177,68.4572,96.6878,263.4242,6.7263e-06,-1.81e-06,0.0,0 STARLINK-4746,1 53846U 22114AE  23172.40940736 -.00000181  00000-0  67263-5 0  9994,2 53846  53.2177  68.4572 0001122  96.6878 263.4242 15.08846118 42635,6917.862,95.437,540.503,538.951,0.0
53846.0,STARLINK-4746,PAYLOAD,2023-06-22 01:43:24,15.08836117,0.0001184,53.218,65.4831,85.7288,274.3839,1.4077e-05,-6.4e-07,0.0,0 STARLINK-4746,1 53846U 22114AE  23173.07181683 -.00000064  00000-0  14077-4 0  9990,2 53846  53.2180  65.4831 0001184  85.7288 274.3839 15.08836117 42738,6917.892,95.438,540.576,538.938,0.0
53846.0,STARLINK-4746,PAYLOAD,2023-06-23 01:34:11,15.08847558,0.0001097,53.2171,61.0206,91.4516,268.6602,0.0001035,1.36e-05,0.0,0 STARLINK-4746,1 53846U 22114AE  23174.06540944  .00001360  00000-0  10350-3 0  9997,2 53846  53.2171  61.0206 0001097  91.4516 268.6602 15.08847558 42888,6917.857,95.437,540.481,538.963,0.0
53846.0,STARLINK-4746,PAYLOAD,2023-06-24 01:24:58,15.08845781,0.0001157,53.2172,56.5598,82.2088,277.9035,0.00013196,1.813e-05,0.0,0 STARLINK-4746,1 53846U 22114AE  23175.05901112  .00001813  00000-0  13196-3 0  9999,2 53846  53.2172  56.5598 0001157  82.2088 277.9035 15.08845781 43038,6917.863,95.437,540.528,538.927,0.0
53846.0,STARLINK-4746,PAYLOAD,2023-06-24 15:43:27,15.08835587,8.4e-05,53.2169,53.8871,88.8818,271.2271,0.00011947,1.614e-05,0.0,0 STARLINK-4746,1 53846U 22114AE  23175.65517746  .00001614  00000-0  11947-3 0  9992,2 53846  53.2169  53.8871 0000840  88.8818 271.2271 15.08835587 43121,6917.894,95.438,540.34,539.178,0.0
53846.0,STARLINK-4746,PAYLOAD,2023-06-25 01:15:45,15.0884839,0.0001264,53.2174,52.1,86.6285,273.4852,6.4659e-05,7.42e-06,0.0,0 STARLINK-4746,1 53846U 22114AE  23176.05261110  .00000742  00000-0  64659-4 0  9998,2 53846  53.2174  52.1000 0001264  86.6285 273.4852 15.08848390 43189,6917.855,95.437,540.594,538.845,0.0
53846.0,STARLINK-4746,PAYLOAD,2023-06-25 09:12:41,15.08845142,0.0001096,53.2159,50.6129,97.1047,263.007,-7.9169e-06,-4.14e-06,0.0,0 STARLINK-4746,1 53846U 22114AE  23176.38381398 -.00000414  00000-0 -79169-5 0  9996,2 53846  53.2159  50.6129 0001096  97.1047 263.0070 15.08845142 43238,6917.865,95.437,540.488,538.971,0.0
